SINOD-D 1               
1 40968U 15058E   26068.70671034  .00006216  00000+0  50695-3 0  9998
2 40968  64.7759 210.2419 0117281  93.1753 268.2787 14.95054547101785
STARLINK-3726           
1 52122U 22029AL  26068.32460875 -.00001278  00000+0 -62235-4 0  9995
2 52122  53.2169  80.7606 0001334  88.5591 271.5554 15.08829473220734
